IRIDIUM 155             
1 43573U 18061E   21099.82605395  .00000107  00000-0  31212-4 0  9998
2 43573  86.3935 128.4264 0002760  87.8742 272.2770 14.34217606141834
IRIDIUM 154             
1 43574U 18061F   21099.80701994  .00000104  00000-0  30250-4 0  9997
2 43574  86.3939 128.4778 0002154  98.4039 261.7401 14.34217068141884
IRIDIUM 163             
1 43575U 18061G   21099.78799391  .00000249  00000-0  81728-4 0  9999
2 43575  86.3937 128.4586 0001864  82.8202 277.3206 14.34218125141854
IRIDIUM 156             
1 43576U 18061H   21099.83238588  .00000104  00000-0  29961-4 0  9993
2 43576  86.3937 128.4452 0002314  83.1419 277.0040 14.34219709141854
IRIDIUM 164             
1 43577U 18061J   21099.81336159  .00000101  00000-0  28962-4 0  9992
2 43577  86.3938 128.4647 0002064  94.9507 265.1925 14.34219953141897
IRIDIUM 159             
1 43578U 18061K   21099.78164499  .00000099  00000-0  28127-4 0  9994
2 43578  86.3937 128.4546 0002183  95.9103 264.2341 14.34215700141854
IRIDIUM 180             
1 43922U 19002A   21099.85091114  .00000056  00000-0  13048-4 0  9993
2 43922  86.3962  65.2353 0001403 106.0964 254.0386 14.34216019117473
IRIDIUM 176             
1 43923U 19002B   21099.83105392  .00000154  00000-0  20483-4 0  9996
2 43923  86.6097  65.2751 0002396  92.2488 267.9003 14.72256377120530
IRIDIUM 168             
1 43924U 19002C   21099.42597239  .00000078  00000-0  20752-4 0  9991
2 43924  86.3963  65.4367 0002047  93.1504 266.9926 14.34219034117397
IRIDIUM 173             
1 43925U 19002D   21099.83188597  .00000077  00000-0  20377-4 0  9992
2 43925  86.3961  65.2329 0002052  90.0048 270.1383 14.34219872117436
IRIDIUM 169             
1 43926U 19002E   21099.97041377  .00000080  00000-0  19520-4 0  9994
2 43926  86.4177  96.7928 0007287  94.8368 265.3662 14.38610862117897
IRIDIUM 172             
1 43927U 19002F   21099.75576745  .00000076  00000-0  20149-4 0  9997
2 43927  86.3961  65.2668 0001992  91.9831 268.1593 14.34219257117433
IRIDIUM 175             
1 43928U 19002G   21099.62095902  .00000166  00000-0  22424-4 0  9993
2 43928  86.6080  65.1963 0002079  74.0143 286.1303 14.72256912120491
IRIDIUM 171             
1 43929U 19002H   21099.87627929  .00000012  00000-0 -28337-5 0  9992
2 43929  86.3970  65.3124 0002105  93.0464 267.0973 14.34215579117449
IRIDIUM 170             
1 43930U 19002J   21099.83720584  .00000158  00000-0  21148-4 0  9993
2 43930  86.6096  65.2790 0002209  87.6340 272.5130 14.72256484120541
IRIDIUM 167             
1 43931U 19002K   21099.86994269  .00000071  00000-0  18323-4 0  9995
2 43931  86.3962  65.2248 0001620 103.4356 256.7020 14.34217721117445
